[{"OBJECT_NAME":"STARLINK-5738","OBJECT_ID":"2023-020E","EPOCH":"2026-03-09T04:59:50.874144","MEAN_MOTION":15.02538013,"ECCENTRICITY":0.00011997,"INCLINATION":43.0055,"RA_OF_ASC_NODE":7.534,"ARG_OF_PERICENTER":274.1323,"MEAN_ANOMALY":85.9382,"EPHEMERIS_TYPE":0,"CLASSIFICATION_TYPE":"U","NORAD_CAT_ID":55573,"ELEMENT_SET_NO":999,"REV_AT_EPOCH":16884,"BSTAR":-1.0852628e-5,"MEAN_MOTION_DOT":-3.5e-6,"MEAN_MOTION_DDOT":0},{"OBJECT_NAME":"KORSAT-3","OBJECT_ID":"2025-081A","EPOCH":"2026-03-09T21:24:50.510592","MEAN_MOTION":14.99637968,"ECCENTRICITY":0.00099231,"INCLINATION":45.4106,"RA_OF_ASC_NODE":130.6437,"ARG_OF_PERICENTER":32.4345,"MEAN_ANOMALY":327.7142,"EPHEMERIS_TYPE":0,"CLASSIFICATION_TYPE":"U","NORAD_CAT_ID":63630,"ELEMENT_SET_NO":999,"REV_AT_EPOCH":4828,"BSTAR":0.00043193523,"MEAN_MOTION_DOT":5.176e-5,"MEAN_MOTION_DDOT":0}]
